ONEWEB-0373             
1 49299U 21090W   26157.58161991  .00000161  00000+0  36369-3 0  9993
2 49299  87.9199 276.5559 0002056 101.1316 259.0049 13.20771541229624
ONEWEB-0374             
1 49300U 21090X   26157.61447895  .00000041  00000+0  76041-4 0  9999
2 49300  87.8959 291.8046 0002323  88.7764 271.3631 13.14502585226179
ONEWEB-0375             
1 49301U 21090Y   26157.56984189  .00000017  00000+0  86938-5 0  9996
2 49301  87.9190 276.5497 0002419  92.4257 267.7153 13.20771388229125
ONEWEB-0376             
1 49302U 21090Z   26157.64974345  .00000056  00000+0  10647-3 0  9994
2 49302  87.9173 307.0654 0001646  96.7039 263.4281 13.19724745225065
ONEWEB-0377             
1 49303U 21090AA  26157.55651586  .00000104  00000+0  22281-3 0  9995
2 49303  87.9189 276.5545 0002145 100.8979 259.2396 13.20772374229110
ONEWEB-0378             
1 49304U 21090AB  26157.57669675  .00000012  00000+0 -33541-5 0  9998
2 49304  87.9211 276.5559 0002001  97.1211 263.0150 13.20770504228382
ONEWEB-0379             
1 49305U 21090AC  26157.60971515  .00000104  00000+0  24651-3 0  9993
2 49305  87.8958 291.8166 0001915  95.6854 264.4494 13.14502162226170
ONEWEB-0380             
1 49306U 21090AD  26157.64659219  .00000040  00000+0  68117-4 0  9997
2 49306  87.9161 307.0722 0002017  98.0493 262.0868 13.19725471225034
ONEWEB-0381             
1 49307U 21090AE  26156.87119759  .00000087  00000+0  18295-3 0  9994
2 49307  87.9188 276.6957 0002112  94.6552 265.4823 13.20772907228331
ONEWEB-0382             
1 49308U 21090AF  26157.61527240 -.00000176  00000+0 -46535-3 0  9995
2 49308  87.9190 276.5419 0002080  92.4491 267.6881 13.20771148228423
ONEWEB-0383             
1 49309U 21090AG  26157.60335926  .00000259  00000+0  66348-3 0  9997
2 49309  87.8966 291.8089 0001876  94.5905 265.5439 13.14504736226202
ONEWEB-0384             
1 49310U 21090AH  26157.83151932 -.00000012  00000+0 -62241-4 0  9995
2 49310  87.9191 276.5424 0002143  87.9883 272.1496 13.20811501228462
ONEWEB-0385             
1 49311U 21090AJ  26157.60856602  .00000049  00000+0  88923-4 0  9990
2 49311  87.9189 276.5485 0002050  95.2785 264.8582 13.20772090228404
ONEWEB-0386             
1 49312U 21090AK  26157.39812663 -.00000155  00000+0 -41431-3 0  9998
2 49312  87.9186 276.5803 0002008  94.0185 266.1178 13.20771571228397
ONEWEB-0387             
1 49313U 21090AL  26157.07995098 -.00000109  00000+0 -30076-3 0  9990
2 49313  87.9178 276.6680 0002297 100.3150 259.8242 13.20772586228350
ONEWEB-0388             
1 49314U 21090AM  26157.64185501 -.00000073  00000+0 -21511-3 0  9998
2 49314  87.9160 307.0711 0001857  92.7147 267.4198 13.19724525225021
